{"fetched_at":"2026-03-29T16:36:15Z","count":15609,"tles":[{"name":"STARLINK-3990","line1":"1 52626U 22052AE  26087.74855594 -.00014791  00000+0 -91213-3 0  9994","line2":"2 52626  53.2157 183.5621 0001315 111.1320 248.9812 15.08881168213861","category":"Starlink"}]}