{
  "norad_id": 52626,
  "name": "STARLINK-3990",
  "history": [
    {
      "epoch": "2026-03-28T17:57:55.233216Z",
      "apogee_km": 540.5278650409,
      "perigee_km": 538.7072503964,
      "latitude_deg": -6.948563442755578e-05,
      "longitude_deg": 87.91736366355954,
      "height_km": 540.8414683643236,
      "semi_major_axis_km": 6917.754557718649,
      "eccentricity": 0.00013159,
      "inclination_deg": 53.2157,
      "raan_deg": 183.5621,
      "arg_perigee_deg": 111.132,
      "mean_anomaly_deg": 248.9812,
      "mean_motion_rev_day": 15.08881168
    }
  ]
}